{
  "type": "FeatureCollection",
  "features": [
    {
      "type": "Feature",
      "properties": {
        "nombre": "Plataforma A"
      },
      "geometry": {
        "type": "Polygon",
        "coordinates": [
          [
            [
              -78.67,
              -1.6724999999999999
            ],
            [
              -78.64750000000001,
              -1.6724999999999999
            ],
            [
              -78.64750000000001,
              -1.65
            ],
            [
              -78.67,
              -1.65
            ],
            [
              -78.67,
              -1.6724999999999999
            ]
          ]
        ]
      }
    },
    {
      "type": "Feature",
      "properties": {
        "nombre": "Plataforma B"
      },
      "geometry": {
        "type": "Polygon",
        "coordinates": [
          [
            [
              -78.64750000000001,
              -1.6724999999999999
            ],
            [
              -78.625,
              -1.6724999999999999
            ],
            [
              -78.625,
              -1.65
            ],
            [
              -78.64750000000001,
              -1.65
            ],
            [
              -78.64750000000001,
              -1.6724999999999999
            ]
          ]
        ]
      }
    },
    {
      "type": "Feature",
      "properties": {
        "nombre": "Plataforma C"
      },
      "geometry": {
        "type": "Polygon",
        "coordinates": [
          [
            [
              -78.67,
              -1.695
            ],
            [
              -78.64750000000001,
              -1.695
            ],
            [
              -78.64750000000001,
              -1.6724999999999999
            ],
            [
              -78.67,
              -1.6724999999999999
            ],
            [
              -78.67,
              -1.695
            ]
          ]
        ]
      }
    },
    {
      "type": "Feature",
      "properties": {
        "nombre": "Plataforma D"
      },
      "geometry": {
        "type": "Polygon",
        "coordinates": [
          [
            [
              -78.64750000000001,
              -1.695
            ],
            [
              -78.625,
              -1.695
            ],
            [
              -78.625,
              -1.6724999999999999
            ],
            [
              -78.64750000000001,
              -1.6724999999999999
            ],
            [
              -78.64750000000001,
              -1.695
            ]
          ]
        ]
      }
    }
  ]
}