{
  "type": "FeatureCollection",
  "features": [
    {
      "type": "Feature",
      "properties": {
        "codigo": "MZ-01-01",
        "nombre": "MZ-01-01"
      },
      "geometry": {
        "type": "Polygon",
        "coordinates": [
          [
            [
              -78.67,
              -1.695
            ],
            [
              -78.66172,
              -1.695
            ],
            [
              -78.66172,
              -1.68672
            ],
            [
              -78.67,
              -1.68672
            ],
            [
              -78.67,
              -1.695
            ]
          ]
        ]
      }
    },
    {
      "type": "Feature",
      "properties": {
        "codigo": "MZ-01-02",
        "nombre": "MZ-01-02"
      },
      "geometry": {
        "type": "Polygon",
        "coordinates": [
          [
            [
              -78.661,
              -1.695
            ],
            [
              -78.65272,
              -1.695
            ],
            [
              -78.65272,
              -1.68672
            ],
            [
              -78.661,
              -1.68672
            ],
            [
              -78.661,
              -1.695
            ]
          ]
        ]
      }
    },
    {
      "type": "Feature",
      "properties": {
        "codigo": "MZ-01-03",
        "nombre": "MZ-01-03"
      },
      "geometry": {
        "type": "Polygon",
        "coordinates": [
          [
            [
              -78.652,
              -1.695
            ],
            [
              -78.64372,
              -1.695
            ],
            [
              -78.64372,
              -1.68672
            ],
            [
              -78.652,
              -1.68672
            ],
            [
              -78.652,
              -1.695
            ]
          ]
        ]
      }
    },
    {
      "type": "Feature",
      "properties": {
        "codigo": "MZ-01-04",
        "nombre": "MZ-01-04"
      },
      "geometry": {
        "type": "Polygon",
        "coordinates": [
          [
            [
              -78.643,
              -1.695
            ],
            [
              -78.63472,
              -1.695
            ],
            [
              -78.63472,
              -1.68672
            ],
            [
              -78.643,
              -1.68672
            ],
            [
              -78.643,
              -1.695
            ]
          ]
        ]
      }
    },
    {
      "type": "Feature",
      "properties": {
        "codigo": "MZ-01-05",
        "nombre": "MZ-01-05"
      },
      "geometry": {
        "type": "Polygon",
        "coordinates": [
          [
            [
              -78.634,
              -1.695
            ],
            [
              -78.62572,
              -1.695
            ],
            [
              -78.62572,
              -1.68672
            ],
            [
              -78.634,
              -1.68672
            ],
            [
              -78.634,
              -1.695
            ]
          ]
        ]
      }
    },
    {
      "type": "Feature",
      "properties": {
        "codigo": "MZ-02-01",
        "nombre": "MZ-02-01"
      },
      "geometry": {
        "type": "Polygon",
        "coordinates": [
          [
            [
              -78.67,
              -1.686
            ],
            [
              -78.66172,
              -1.686
            ],
            [
              -78.66172,
              -1.6777199999999999
            ],
            [
              -78.67,
              -1.6777199999999999
            ],
            [
              -78.67,
              -1.686
            ]
          ]
        ]
      }
    },
    {
      "type": "Feature",
      "properties": {
        "codigo": "MZ-02-02",
        "nombre": "MZ-02-02"
      },
      "geometry": {
        "type": "Polygon",
        "coordinates": [
          [
            [
              -78.661,
              -1.686
            ],
            [
              -78.65272,
              -1.686
            ],
            [
              -78.65272,
              -1.6777199999999999
            ],
            [
              -78.661,
              -1.6777199999999999
            ],
            [
              -78.661,
              -1.686
            ]
          ]
        ]
      }
    },
    {
      "type": "Feature",
      "properties": {
        "codigo": "MZ-02-03",
        "nombre": "MZ-02-03"
      },
      "geometry": {
        "type": "Polygon",
        "coordinates": [
          [
            [
              -78.652,
              -1.686
            ],
            [
              -78.64372,
              -1.686
            ],
            [
              -78.64372,
              -1.6777199999999999
            ],
            [
              -78.652,
              -1.6777199999999999
            ],
            [
              -78.652,
              -1.686
            ]
          ]
        ]
      }
    },
    {
      "type": "Feature",
      "properties": {
        "codigo": "MZ-02-04",
        "nombre": "MZ-02-04"
      },
      "geometry": {
        "type": "Polygon",
        "coordinates": [
          [
            [
              -78.643,
              -1.686
            ],
            [
              -78.63472,
              -1.686
            ],
            [
              -78.63472,
              -1.6777199999999999
            ],
            [
              -78.643,
              -1.6777199999999999
            ],
            [
              -78.643,
              -1.686
            ]
          ]
        ]
      }
    },
    {
      "type": "Feature",
      "properties": {
        "codigo": "MZ-02-05",
        "nombre": "MZ-02-05"
      },
      "geometry": {
        "type": "Polygon",
        "coordinates": [
          [
            [
              -78.634,
              -1.686
            ],
            [
              -78.62572,
              -1.686
            ],
            [
              -78.62572,
              -1.6777199999999999
            ],
            [
              -78.634,
              -1.6777199999999999
            ],
            [
              -78.634,
              -1.686
            ]
          ]
        ]
      }
    },
    {
      "type": "Feature",
      "properties": {
        "codigo": "MZ-03-01",
        "nombre": "MZ-03-01"
      },
      "geometry": {
        "type": "Polygon",
        "coordinates": [
          [
            [
              -78.67,
              -1.677
            ],
            [
              -78.66172,
              -1.677
            ],
            [
              -78.66172,
              -1.66872
            ],
            [
              -78.67,
              -1.66872
            ],
            [
              -78.67,
              -1.677
            ]
          ]
        ]
      }
    },
    {
      "type": "Feature",
      "properties": {
        "codigo": "MZ-03-02",
        "nombre": "MZ-03-02"
      },
      "geometry": {
        "type": "Polygon",
        "coordinates": [
          [
            [
              -78.661,
              -1.677
            ],
            [
              -78.65272,
              -1.677
            ],
            [
              -78.65272,
              -1.66872
            ],
            [
              -78.661,
              -1.66872
            ],
            [
              -78.661,
              -1.677
            ]
          ]
        ]
      }
    },
    {
      "type": "Feature",
      "properties": {
        "codigo": "MZ-03-03",
        "nombre": "MZ-03-03"
      },
      "geometry": {
        "type": "Polygon",
        "coordinates": [
          [
            [
              -78.652,
              -1.677
            ],
            [
              -78.64372,
              -1.677
            ],
            [
              -78.64372,
              -1.66872
            ],
            [
              -78.652,
              -1.66872
            ],
            [
              -78.652,
              -1.677
            ]
          ]
        ]
      }
    },
    {
      "type": "Feature",
      "properties": {
        "codigo": "MZ-03-04",
        "nombre": "MZ-03-04"
      },
      "geometry": {
        "type": "Polygon",
        "coordinates": [
          [
            [
              -78.643,
              -1.677
            ],
            [
              -78.63472,
              -1.677
            ],
            [
              -78.63472,
              -1.66872
            ],
            [
              -78.643,
              -1.66872
            ],
            [
              -78.643,
              -1.677
            ]
          ]
        ]
      }
    },
    {
      "type": "Feature",
      "properties": {
        "codigo": "MZ-03-05",
        "nombre": "MZ-03-05"
      },
      "geometry": {
        "type": "Polygon",
        "coordinates": [
          [
            [
              -78.634,
              -1.677
            ],
            [
              -78.62572,
              -1.677
            ],
            [
              -78.62572,
              -1.66872
            ],
            [
              -78.634,
              -1.66872
            ],
            [
              -78.634,
              -1.677
            ]
          ]
        ]
      }
    },
    {
      "type": "Feature",
      "properties": {
        "codigo": "MZ-04-01",
        "nombre": "MZ-04-01"
      },
      "geometry": {
        "type": "Polygon",
        "coordinates": [
          [
            [
              -78.67,
              -1.668
            ],
            [
              -78.66172,
              -1.668
            ],
            [
              -78.66172,
              -1.6597199999999999
            ],
            [
              -78.67,
              -1.6597199999999999
            ],
            [
              -78.67,
              -1.668
            ]
          ]
        ]
      }
    },
    {
      "type": "Feature",
      "properties": {
        "codigo": "MZ-04-02",
        "nombre": "MZ-04-02"
      },
      "geometry": {
        "type": "Polygon",
        "coordinates": [
          [
            [
              -78.661,
              -1.668
            ],
            [
              -78.65272,
              -1.668
            ],
            [
              -78.65272,
              -1.6597199999999999
            ],
            [
              -78.661,
              -1.6597199999999999
            ],
            [
              -78.661,
              -1.668
            ]
          ]
        ]
      }
    },
    {
      "type": "Feature",
      "properties": {
        "codigo": "MZ-04-03",
        "nombre": "MZ-04-03"
      },
      "geometry": {
        "type": "Polygon",
        "coordinates": [
          [
            [
              -78.652,
              -1.668
            ],
            [
              -78.64372,
              -1.668
            ],
            [
              -78.64372,
              -1.6597199999999999
            ],
            [
              -78.652,
              -1.6597199999999999
            ],
            [
              -78.652,
              -1.668
            ]
          ]
        ]
      }
    },
    {
      "type": "Feature",
      "properties": {
        "codigo": "MZ-04-04",
        "nombre": "MZ-04-04"
      },
      "geometry": {
        "type": "Polygon",
        "coordinates": [
          [
            [
              -78.643,
              -1.668
            ],
            [
              -78.63472,
              -1.668
            ],
            [
              -78.63472,
              -1.6597199999999999
            ],
            [
              -78.643,
              -1.6597199999999999
            ],
            [
              -78.643,
              -1.668
            ]
          ]
        ]
      }
    },
    {
      "type": "Feature",
      "properties": {
        "codigo": "MZ-04-05",
        "nombre": "MZ-04-05"
      },
      "geometry": {
        "type": "Polygon",
        "coordinates": [
          [
            [
              -78.634,
              -1.668
            ],
            [
              -78.62572,
              -1.668
            ],
            [
              -78.62572,
              -1.6597199999999999
            ],
            [
              -78.634,
              -1.6597199999999999
            ],
            [
              -78.634,
              -1.668
            ]
          ]
        ]
      }
    },
    {
      "type": "Feature",
      "properties": {
        "codigo": "MZ-05-01",
        "nombre": "MZ-05-01"
      },
      "geometry": {
        "type": "Polygon",
        "coordinates": [
          [
            [
              -78.67,
              -1.659
            ],
            [
              -78.66172,
              -1.659
            ],
            [
              -78.66172,
              -1.65072
            ],
            [
              -78.67,
              -1.65072
            ],
            [
              -78.67,
              -1.659
            ]
          ]
        ]
      }
    },
    {
      "type": "Feature",
      "properties": {
        "codigo": "MZ-05-02",
        "nombre": "MZ-05-02"
      },
      "geometry": {
        "type": "Polygon",
        "coordinates": [
          [
            [
              -78.661,
              -1.659
            ],
            [
              -78.65272,
              -1.659
            ],
            [
              -78.65272,
              -1.65072
            ],
            [
              -78.661,
              -1.65072
            ],
            [
              -78.661,
              -1.659
            ]
          ]
        ]
      }
    },
    {
      "type": "Feature",
      "properties": {
        "codigo": "MZ-05-03",
        "nombre": "MZ-05-03"
      },
      "geometry": {
        "type": "Polygon",
        "coordinates": [
          [
            [
              -78.652,
              -1.659
            ],
            [
              -78.64372,
              -1.659
            ],
            [
              -78.64372,
              -1.65072
            ],
            [
              -78.652,
              -1.65072
            ],
            [
              -78.652,
              -1.659
            ]
          ]
        ]
      }
    },
    {
      "type": "Feature",
      "properties": {
        "codigo": "MZ-05-04",
        "nombre": "MZ-05-04"
      },
      "geometry": {
        "type": "Polygon",
        "coordinates": [
          [
            [
              -78.643,
              -1.659
            ],
            [
              -78.63472,
              -1.659
            ],
            [
              -78.63472,
              -1.65072
            ],
            [
              -78.643,
              -1.65072
            ],
            [
              -78.643,
              -1.659
            ]
          ]
        ]
      }
    },
    {
      "type": "Feature",
      "properties": {
        "codigo": "MZ-05-05",
        "nombre": "MZ-05-05"
      },
      "geometry": {
        "type": "Polygon",
        "coordinates": [
          [
            [
              -78.634,
              -1.659
            ],
            [
              -78.62572,
              -1.659
            ],
            [
              -78.62572,
              -1.65072
            ],
            [
              -78.634,
              -1.65072
            ],
            [
              -78.634,
              -1.659
            ]
          ]
        ]
      }
    }
  ]
}