{
  "type": "FeatureCollection",
  "features": [
    {
      "type": "Feature",
      "properties": {
        "nombre": "Lizarzaburu",
        "tipo": "Urbana"
      },
      "geometry": {
        "type": "Polygon",
        "coordinates": [
          [
            [
              -78.675,
              -1.6724999999999999
            ],
            [
              -78.64750000000001,
              -1.6724999999999999
            ],
            [
              -78.64750000000001,
              -1.645
            ],
            [
              -78.675,
              -1.645
            ],
            [
              -78.675,
              -1.6724999999999999
            ]
          ]
        ]
      }
    },
    {
      "type": "Feature",
      "properties": {
        "nombre": "Velasco",
        "tipo": "Urbana"
      },
      "geometry": {
        "type": "Polygon",
        "coordinates": [
          [
            [
              -78.64750000000001,
              -1.6724999999999999
            ],
            [
              -78.62,
              -1.6724999999999999
            ],
            [
              -78.62,
              -1.645
            ],
            [
              -78.64750000000001,
              -1.645
            ],
            [
              -78.64750000000001,
              -1.6724999999999999
            ]
          ]
        ]
      }
    },
    {
      "type": "Feature",
      "properties": {
        "nombre": "San Luis",
        "tipo": "Rural"
      },
      "geometry": {
        "type": "Polygon",
        "coordinates": [
          [
            [
              -78.675,
              -1.7
            ],
            [
              -78.64750000000001,
              -1.7
            ],
            [
              -78.64750000000001,
              -1.6724999999999999
            ],
            [
              -78.675,
              -1.6724999999999999
            ],
            [
              -78.675,
              -1.7
            ]
          ]
        ]
      }
    },
    {
      "type": "Feature",
      "properties": {
        "nombre": "Licto",
        "tipo": "Rural"
      },
      "geometry": {
        "type": "Polygon",
        "coordinates": [
          [
            [
              -78.64750000000001,
              -1.7
            ],
            [
              -78.62,
              -1.7
            ],
            [
              -78.62,
              -1.6724999999999999
            ],
            [
              -78.64750000000001,
              -1.6724999999999999
            ],
            [
              -78.64750000000001,
              -1.7
            ]
          ]
        ]
      }
    }
  ]
}