{
  "type": "FeatureCollection",
  "features": [
    {
      "type": "Feature",
      "properties": {
        "clave_catastral": "MZ-01-01-P1",
        "nombre": "MZ-01-01-P1"
      },
      "geometry": {
        "type": "Polygon",
        "coordinates": [
          [
            [
              -78.67,
              -1.695
            ],
            [
              -78.66586000000001,
              -1.695
            ],
            [
              -78.66586000000001,
              -1.69086
            ],
            [
              -78.67,
              -1.69086
            ],
            [
              -78.67,
              -1.695
            ]
          ]
        ]
      }
    },
    {
      "type": "Feature",
      "properties": {
        "clave_catastral": "MZ-01-01-P2",
        "nombre": "MZ-01-01-P2"
      },
      "geometry": {
        "type": "Polygon",
        "coordinates": [
          [
            [
              -78.66586000000001,
              -1.695
            ],
            [
              -78.66172,
              -1.695
            ],
            [
              -78.66172,
              -1.69086
            ],
            [
              -78.66586000000001,
              -1.69086
            ],
            [
              -78.66586000000001,
              -1.695
            ]
          ]
        ]
      }
    },
    {
      "type": "Feature",
      "properties": {
        "clave_catastral": "MZ-01-01-P3",
        "nombre": "MZ-01-01-P3"
      },
      "geometry": {
        "type": "Polygon",
        "coordinates": [
          [
            [
              -78.67,
              -1.69086
            ],
            [
              -78.66586000000001,
              -1.69086
            ],
            [
              -78.66586000000001,
              -1.68672
            ],
            [
              -78.67,
              -1.68672
            ],
            [
              -78.67,
              -1.69086
            ]
          ]
        ]
      }
    },
    {
      "type": "Feature",
      "properties": {
        "clave_catastral": "MZ-01-01-P4",
        "nombre": "MZ-01-01-P4"
      },
      "geometry": {
        "type": "Polygon",
        "coordinates": [
          [
            [
              -78.66586000000001,
              -1.69086
            ],
            [
              -78.66172,
              -1.69086
            ],
            [
              -78.66172,
              -1.68672
            ],
            [
              -78.66586000000001,
              -1.68672
            ],
            [
              -78.66586000000001,
              -1.69086
            ]
          ]
        ]
      }
    },
    {
      "type": "Feature",
      "properties": {
        "clave_catastral": "MZ-01-02-P1",
        "nombre": "MZ-01-02-P1"
      },
      "geometry": {
        "type": "Polygon",
        "coordinates": [
          [
            [
              -78.661,
              -1.695
            ],
            [
              -78.65686,
              -1.695
            ],
            [
              -78.65686,
              -1.69086
            ],
            [
              -78.661,
              -1.69086
            ],
            [
              -78.661,
              -1.695
            ]
          ]
        ]
      }
    },
    {
      "type": "Feature",
      "properties": {
        "clave_catastral": "MZ-01-02-P2",
        "nombre": "MZ-01-02-P2"
      },
      "geometry": {
        "type": "Polygon",
        "coordinates": [
          [
            [
              -78.65686,
              -1.695
            ],
            [
              -78.65272,
              -1.695
            ],
            [
              -78.65272,
              -1.69086
            ],
            [
              -78.65686,
              -1.69086
            ],
            [
              -78.65686,
              -1.695
            ]
          ]
        ]
      }
    },
    {
      "type": "Feature",
      "properties": {
        "clave_catastral": "MZ-01-02-P3",
        "nombre": "MZ-01-02-P3"
      },
      "geometry": {
        "type": "Polygon",
        "coordinates": [
          [
            [
              -78.661,
              -1.69086
            ],
            [
              -78.65686,
              -1.69086
            ],
            [
              -78.65686,
              -1.68672
            ],
            [
              -78.661,
              -1.68672
            ],
            [
              -78.661,
              -1.69086
            ]
          ]
        ]
      }
    },
    {
      "type": "Feature",
      "properties": {
        "clave_catastral": "MZ-01-02-P4",
        "nombre": "MZ-01-02-P4"
      },
      "geometry": {
        "type": "Polygon",
        "coordinates": [
          [
            [
              -78.65686,
              -1.69086
            ],
            [
              -78.65272,
              -1.69086
            ],
            [
              -78.65272,
              -1.68672
            ],
            [
              -78.65686,
              -1.68672
            ],
            [
              -78.65686,
              -1.69086
            ]
          ]
        ]
      }
    },
    {
      "type": "Feature",
      "properties": {
        "clave_catastral": "MZ-01-03-P1",
        "nombre": "MZ-01-03-P1"
      },
      "geometry": {
        "type": "Polygon",
        "coordinates": [
          [
            [
              -78.652,
              -1.695
            ],
            [
              -78.64786000000001,
              -1.695
            ],
            [
              -78.64786000000001,
              -1.69086
            ],
            [
              -78.652,
              -1.69086
            ],
            [
              -78.652,
              -1.695
            ]
          ]
        ]
      }
    },
    {
      "type": "Feature",
      "properties": {
        "clave_catastral": "MZ-01-03-P2",
        "nombre": "MZ-01-03-P2"
      },
      "geometry": {
        "type": "Polygon",
        "coordinates": [
          [
            [
              -78.64786000000001,
              -1.695
            ],
            [
              -78.64372,
              -1.695
            ],
            [
              -78.64372,
              -1.69086
            ],
            [
              -78.64786000000001,
              -1.69086
            ],
            [
              -78.64786000000001,
              -1.695
            ]
          ]
        ]
      }
    },
    {
      "type": "Feature",
      "properties": {
        "clave_catastral": "MZ-01-03-P3",
        "nombre": "MZ-01-03-P3"
      },
      "geometry": {
        "type": "Polygon",
        "coordinates": [
          [
            [
              -78.652,
              -1.69086
            ],
            [
              -78.64786000000001,
              -1.69086
            ],
            [
              -78.64786000000001,
              -1.68672
            ],
            [
              -78.652,
              -1.68672
            ],
            [
              -78.652,
              -1.69086
            ]
          ]
        ]
      }
    },
    {
      "type": "Feature",
      "properties": {
        "clave_catastral": "MZ-01-03-P4",
        "nombre": "MZ-01-03-P4"
      },
      "geometry": {
        "type": "Polygon",
        "coordinates": [
          [
            [
              -78.64786000000001,
              -1.69086
            ],
            [
              -78.64372,
              -1.69086
            ],
            [
              -78.64372,
              -1.68672
            ],
            [
              -78.64786000000001,
              -1.68672
            ],
            [
              -78.64786000000001,
              -1.69086
            ]
          ]
        ]
      }
    },
    {
      "type": "Feature",
      "properties": {
        "clave_catastral": "MZ-01-04-P1",
        "nombre": "MZ-01-04-P1"
      },
      "geometry": {
        "type": "Polygon",
        "coordinates": [
          [
            [
              -78.643,
              -1.695
            ],
            [
              -78.63886,
              -1.695
            ],
            [
              -78.63886,
              -1.69086
            ],
            [
              -78.643,
              -1.69086
            ],
            [
              -78.643,
              -1.695
            ]
          ]
        ]
      }
    },
    {
      "type": "Feature",
      "properties": {
        "clave_catastral": "MZ-01-04-P2",
        "nombre": "MZ-01-04-P2"
      },
      "geometry": {
        "type": "Polygon",
        "coordinates": [
          [
            [
              -78.63886,
              -1.695
            ],
            [
              -78.63472,
              -1.695
            ],
            [
              -78.63472,
              -1.69086
            ],
            [
              -78.63886,
              -1.69086
            ],
            [
              -78.63886,
              -1.695
            ]
          ]
        ]
      }
    },
    {
      "type": "Feature",
      "properties": {
        "clave_catastral": "MZ-01-04-P3",
        "nombre": "MZ-01-04-P3"
      },
      "geometry": {
        "type": "Polygon",
        "coordinates": [
          [
            [
              -78.643,
              -1.69086
            ],
            [
              -78.63886,
              -1.69086
            ],
            [
              -78.63886,
              -1.68672
            ],
            [
              -78.643,
              -1.68672
            ],
            [
              -78.643,
              -1.69086
            ]
          ]
        ]
      }
    },
    {
      "type": "Feature",
      "properties": {
        "clave_catastral": "MZ-01-04-P4",
        "nombre": "MZ-01-04-P4"
      },
      "geometry": {
        "type": "Polygon",
        "coordinates": [
          [
            [
              -78.63886,
              -1.69086
            ],
            [
              -78.63472,
              -1.69086
            ],
            [
              -78.63472,
              -1.68672
            ],
            [
              -78.63886,
              -1.68672
            ],
            [
              -78.63886,
              -1.69086
            ]
          ]
        ]
      }
    },
    {
      "type": "Feature",
      "properties": {
        "clave_catastral": "MZ-01-05-P1",
        "nombre": "MZ-01-05-P1"
      },
      "geometry": {
        "type": "Polygon",
        "coordinates": [
          [
            [
              -78.634,
              -1.695
            ],
            [
              -78.62986000000001,
              -1.695
            ],
            [
              -78.62986000000001,
              -1.69086
            ],
            [
              -78.634,
              -1.69086
            ],
            [
              -78.634,
              -1.695
            ]
          ]
        ]
      }
    },
    {
      "type": "Feature",
      "properties": {
        "clave_catastral": "MZ-01-05-P2",
        "nombre": "MZ-01-05-P2"
      },
      "geometry": {
        "type": "Polygon",
        "coordinates": [
          [
            [
              -78.62986000000001,
              -1.695
            ],
            [
              -78.62572,
              -1.695
            ],
            [
              -78.62572,
              -1.69086
            ],
            [
              -78.62986000000001,
              -1.69086
            ],
            [
              -78.62986000000001,
              -1.695
            ]
          ]
        ]
      }
    },
    {
      "type": "Feature",
      "properties": {
        "clave_catastral": "MZ-01-05-P3",
        "nombre": "MZ-01-05-P3"
      },
      "geometry": {
        "type": "Polygon",
        "coordinates": [
          [
            [
              -78.634,
              -1.69086
            ],
            [
              -78.62986000000001,
              -1.69086
            ],
            [
              -78.62986000000001,
              -1.68672
            ],
            [
              -78.634,
              -1.68672
            ],
            [
              -78.634,
              -1.69086
            ]
          ]
        ]
      }
    },
    {
      "type": "Feature",
      "properties": {
        "clave_catastral": "MZ-01-05-P4",
        "nombre": "MZ-01-05-P4"
      },
      "geometry": {
        "type": "Polygon",
        "coordinates": [
          [
            [
              -78.62986000000001,
              -1.69086
            ],
            [
              -78.62572,
              -1.69086
            ],
            [
              -78.62572,
              -1.68672
            ],
            [
              -78.62986000000001,
              -1.68672
            ],
            [
              -78.62986000000001,
              -1.69086
            ]
          ]
        ]
      }
    },
    {
      "type": "Feature",
      "properties": {
        "clave_catastral": "MZ-02-01-P1",
        "nombre": "MZ-02-01-P1"
      },
      "geometry": {
        "type": "Polygon",
        "coordinates": [
          [
            [
              -78.67,
              -1.686
            ],
            [
              -78.66586000000001,
              -1.686
            ],
            [
              -78.66586000000001,
              -1.68186
            ],
            [
              -78.67,
              -1.68186
            ],
            [
              -78.67,
              -1.686
            ]
          ]
        ]
      }
    },
    {
      "type": "Feature",
      "properties": {
        "clave_catastral": "MZ-02-01-P2",
        "nombre": "MZ-02-01-P2"
      },
      "geometry": {
        "type": "Polygon",
        "coordinates": [
          [
            [
              -78.66586000000001,
              -1.686
            ],
            [
              -78.66172,
              -1.686
            ],
            [
              -78.66172,
              -1.68186
            ],
            [
              -78.66586000000001,
              -1.68186
            ],
            [
              -78.66586000000001,
              -1.686
            ]
          ]
        ]
      }
    },
    {
      "type": "Feature",
      "properties": {
        "clave_catastral": "MZ-02-01-P3",
        "nombre": "MZ-02-01-P3"
      },
      "geometry": {
        "type": "Polygon",
        "coordinates": [
          [
            [
              -78.67,
              -1.68186
            ],
            [
              -78.66586000000001,
              -1.68186
            ],
            [
              -78.66586000000001,
              -1.6777199999999999
            ],
            [
              -78.67,
              -1.6777199999999999
            ],
            [
              -78.67,
              -1.68186
            ]
          ]
        ]
      }
    },
    {
      "type": "Feature",
      "properties": {
        "clave_catastral": "MZ-02-01-P4",
        "nombre": "MZ-02-01-P4"
      },
      "geometry": {
        "type": "Polygon",
        "coordinates": [
          [
            [
              -78.66586000000001,
              -1.68186
            ],
            [
              -78.66172,
              -1.68186
            ],
            [
              -78.66172,
              -1.6777199999999999
            ],
            [
              -78.66586000000001,
              -1.6777199999999999
            ],
            [
              -78.66586000000001,
              -1.68186
            ]
          ]
        ]
      }
    },
    {
      "type": "Feature",
      "properties": {
        "clave_catastral": "MZ-02-02-P1",
        "nombre": "MZ-02-02-P1"
      },
      "geometry": {
        "type": "Polygon",
        "coordinates": [
          [
            [
              -78.661,
              -1.686
            ],
            [
              -78.65686,
              -1.686
            ],
            [
              -78.65686,
              -1.68186
            ],
            [
              -78.661,
              -1.68186
            ],
            [
              -78.661,
              -1.686
            ]
          ]
        ]
      }
    },
    {
      "type": "Feature",
      "properties": {
        "clave_catastral": "MZ-02-02-P2",
        "nombre": "MZ-02-02-P2"
      },
      "geometry": {
        "type": "Polygon",
        "coordinates": [
          [
            [
              -78.65686,
              -1.686
            ],
            [
              -78.65272,
              -1.686
            ],
            [
              -78.65272,
              -1.68186
            ],
            [
              -78.65686,
              -1.68186
            ],
            [
              -78.65686,
              -1.686
            ]
          ]
        ]
      }
    },
    {
      "type": "Feature",
      "properties": {
        "clave_catastral": "MZ-02-02-P3",
        "nombre": "MZ-02-02-P3"
      },
      "geometry": {
        "type": "Polygon",
        "coordinates": [
          [
            [
              -78.661,
              -1.68186
            ],
            [
              -78.65686,
              -1.68186
            ],
            [
              -78.65686,
              -1.6777199999999999
            ],
            [
              -78.661,
              -1.6777199999999999
            ],
            [
              -78.661,
              -1.68186
            ]
          ]
        ]
      }
    },
    {
      "type": "Feature",
      "properties": {
        "clave_catastral": "MZ-02-02-P4",
        "nombre": "MZ-02-02-P4"
      },
      "geometry": {
        "type": "Polygon",
        "coordinates": [
          [
            [
              -78.65686,
              -1.68186
            ],
            [
              -78.65272,
              -1.68186
            ],
            [
              -78.65272,
              -1.6777199999999999
            ],
            [
              -78.65686,
              -1.6777199999999999
            ],
            [
              -78.65686,
              -1.68186
            ]
          ]
        ]
      }
    },
    {
      "type": "Feature",
      "properties": {
        "clave_catastral": "MZ-02-03-P1",
        "nombre": "MZ-02-03-P1"
      },
      "geometry": {
        "type": "Polygon",
        "coordinates": [
          [
            [
              -78.652,
              -1.686
            ],
            [
              -78.64786000000001,
              -1.686
            ],
            [
              -78.64786000000001,
              -1.68186
            ],
            [
              -78.652,
              -1.68186
            ],
            [
              -78.652,
              -1.686
            ]
          ]
        ]
      }
    },
    {
      "type": "Feature",
      "properties": {
        "clave_catastral": "MZ-02-03-P2",
        "nombre": "MZ-02-03-P2"
      },
      "geometry": {
        "type": "Polygon",
        "coordinates": [
          [
            [
              -78.64786000000001,
              -1.686
            ],
            [
              -78.64372,
              -1.686
            ],
            [
              -78.64372,
              -1.68186
            ],
            [
              -78.64786000000001,
              -1.68186
            ],
            [
              -78.64786000000001,
              -1.686
            ]
          ]
        ]
      }
    },
    {
      "type": "Feature",
      "properties": {
        "clave_catastral": "MZ-02-03-P3",
        "nombre": "MZ-02-03-P3"
      },
      "geometry": {
        "type": "Polygon",
        "coordinates": [
          [
            [
              -78.652,
              -1.68186
            ],
            [
              -78.64786000000001,
              -1.68186
            ],
            [
              -78.64786000000001,
              -1.6777199999999999
            ],
            [
              -78.652,
              -1.6777199999999999
            ],
            [
              -78.652,
              -1.68186
            ]
          ]
        ]
      }
    },
    {
      "type": "Feature",
      "properties": {
        "clave_catastral": "MZ-02-03-P4",
        "nombre": "MZ-02-03-P4"
      },
      "geometry": {
        "type": "Polygon",
        "coordinates": [
          [
            [
              -78.64786000000001,
              -1.68186
            ],
            [
              -78.64372,
              -1.68186
            ],
            [
              -78.64372,
              -1.6777199999999999
            ],
            [
              -78.64786000000001,
              -1.6777199999999999
            ],
            [
              -78.64786000000001,
              -1.68186
            ]
          ]
        ]
      }
    },
    {
      "type": "Feature",
      "properties": {
        "clave_catastral": "MZ-02-04-P1",
        "nombre": "MZ-02-04-P1"
      },
      "geometry": {
        "type": "Polygon",
        "coordinates": [
          [
            [
              -78.643,
              -1.686
            ],
            [
              -78.63886,
              -1.686
            ],
            [
              -78.63886,
              -1.68186
            ],
            [
              -78.643,
              -1.68186
            ],
            [
              -78.643,
              -1.686
            ]
          ]
        ]
      }
    },
    {
      "type": "Feature",
      "properties": {
        "clave_catastral": "MZ-02-04-P2",
        "nombre": "MZ-02-04-P2"
      },
      "geometry": {
        "type": "Polygon",
        "coordinates": [
          [
            [
              -78.63886,
              -1.686
            ],
            [
              -78.63472,
              -1.686
            ],
            [
              -78.63472,
              -1.68186
            ],
            [
              -78.63886,
              -1.68186
            ],
            [
              -78.63886,
              -1.686
            ]
          ]
        ]
      }
    },
    {
      "type": "Feature",
      "properties": {
        "clave_catastral": "MZ-02-04-P3",
        "nombre": "MZ-02-04-P3"
      },
      "geometry": {
        "type": "Polygon",
        "coordinates": [
          [
            [
              -78.643,
              -1.68186
            ],
            [
              -78.63886,
              -1.68186
            ],
            [
              -78.63886,
              -1.6777199999999999
            ],
            [
              -78.643,
              -1.6777199999999999
            ],
            [
              -78.643,
              -1.68186
            ]
          ]
        ]
      }
    },
    {
      "type": "Feature",
      "properties": {
        "clave_catastral": "MZ-02-04-P4",
        "nombre": "MZ-02-04-P4"
      },
      "geometry": {
        "type": "Polygon",
        "coordinates": [
          [
            [
              -78.63886,
              -1.68186
            ],
            [
              -78.63472,
              -1.68186
            ],
            [
              -78.63472,
              -1.6777199999999999
            ],
            [
              -78.63886,
              -1.6777199999999999
            ],
            [
              -78.63886,
              -1.68186
            ]
          ]
        ]
      }
    },
    {
      "type": "Feature",
      "properties": {
        "clave_catastral": "MZ-02-05-P1",
        "nombre": "MZ-02-05-P1"
      },
      "geometry": {
        "type": "Polygon",
        "coordinates": [
          [
            [
              -78.634,
              -1.686
            ],
            [
              -78.62986000000001,
              -1.686
            ],
            [
              -78.62986000000001,
              -1.68186
            ],
            [
              -78.634,
              -1.68186
            ],
            [
              -78.634,
              -1.686
            ]
          ]
        ]
      }
    },
    {
      "type": "Feature",
      "properties": {
        "clave_catastral": "MZ-02-05-P2",
        "nombre": "MZ-02-05-P2"
      },
      "geometry": {
        "type": "Polygon",
        "coordinates": [
          [
            [
              -78.62986000000001,
              -1.686
            ],
            [
              -78.62572,
              -1.686
            ],
            [
              -78.62572,
              -1.68186
            ],
            [
              -78.62986000000001,
              -1.68186
            ],
            [
              -78.62986000000001,
              -1.686
            ]
          ]
        ]
      }
    },
    {
      "type": "Feature",
      "properties": {
        "clave_catastral": "MZ-02-05-P3",
        "nombre": "MZ-02-05-P3"
      },
      "geometry": {
        "type": "Polygon",
        "coordinates": [
          [
            [
              -78.634,
              -1.68186
            ],
            [
              -78.62986000000001,
              -1.68186
            ],
            [
              -78.62986000000001,
              -1.6777199999999999
            ],
            [
              -78.634,
              -1.6777199999999999
            ],
            [
              -78.634,
              -1.68186
            ]
          ]
        ]
      }
    },
    {
      "type": "Feature",
      "properties": {
        "clave_catastral": "MZ-02-05-P4",
        "nombre": "MZ-02-05-P4"
      },
      "geometry": {
        "type": "Polygon",
        "coordinates": [
          [
            [
              -78.62986000000001,
              -1.68186
            ],
            [
              -78.62572,
              -1.68186
            ],
            [
              -78.62572,
              -1.6777199999999999
            ],
            [
              -78.62986000000001,
              -1.6777199999999999
            ],
            [
              -78.62986000000001,
              -1.68186
            ]
          ]
        ]
      }
    },
    {
      "type": "Feature",
      "properties": {
        "clave_catastral": "MZ-03-01-P1",
        "nombre": "MZ-03-01-P1"
      },
      "geometry": {
        "type": "Polygon",
        "coordinates": [
          [
            [
              -78.67,
              -1.677
            ],
            [
              -78.66586000000001,
              -1.677
            ],
            [
              -78.66586000000001,
              -1.67286
            ],
            [
              -78.67,
              -1.67286
            ],
            [
              -78.67,
              -1.677
            ]
          ]
        ]
      }
    },
    {
      "type": "Feature",
      "properties": {
        "clave_catastral": "MZ-03-01-P2",
        "nombre": "MZ-03-01-P2"
      },
      "geometry": {
        "type": "Polygon",
        "coordinates": [
          [
            [
              -78.66586000000001,
              -1.677
            ],
            [
              -78.66172,
              -1.677
            ],
            [
              -78.66172,
              -1.67286
            ],
            [
              -78.66586000000001,
              -1.67286
            ],
            [
              -78.66586000000001,
              -1.677
            ]
          ]
        ]
      }
    },
    {
      "type": "Feature",
      "properties": {
        "clave_catastral": "MZ-03-01-P3",
        "nombre": "MZ-03-01-P3"
      },
      "geometry": {
        "type": "Polygon",
        "coordinates": [
          [
            [
              -78.67,
              -1.67286
            ],
            [
              -78.66586000000001,
              -1.67286
            ],
            [
              -78.66586000000001,
              -1.66872
            ],
            [
              -78.67,
              -1.66872
            ],
            [
              -78.67,
              -1.67286
            ]
          ]
        ]
      }
    },
    {
      "type": "Feature",
      "properties": {
        "clave_catastral": "MZ-03-01-P4",
        "nombre": "MZ-03-01-P4"
      },
      "geometry": {
        "type": "Polygon",
        "coordinates": [
          [
            [
              -78.66586000000001,
              -1.67286
            ],
            [
              -78.66172,
              -1.67286
            ],
            [
              -78.66172,
              -1.66872
            ],
            [
              -78.66586000000001,
              -1.66872
            ],
            [
              -78.66586000000001,
              -1.67286
            ]
          ]
        ]
      }
    },
    {
      "type": "Feature",
      "properties": {
        "clave_catastral": "MZ-03-02-P1",
        "nombre": "MZ-03-02-P1"
      },
      "geometry": {
        "type": "Polygon",
        "coordinates": [
          [
            [
              -78.661,
              -1.677
            ],
            [
              -78.65686,
              -1.677
            ],
            [
              -78.65686,
              -1.67286
            ],
            [
              -78.661,
              -1.67286
            ],
            [
              -78.661,
              -1.677
            ]
          ]
        ]
      }
    },
    {
      "type": "Feature",
      "properties": {
        "clave_catastral": "MZ-03-02-P2",
        "nombre": "MZ-03-02-P2"
      },
      "geometry": {
        "type": "Polygon",
        "coordinates": [
          [
            [
              -78.65686,
              -1.677
            ],
            [
              -78.65272,
              -1.677
            ],
            [
              -78.65272,
              -1.67286
            ],
            [
              -78.65686,
              -1.67286
            ],
            [
              -78.65686,
              -1.677
            ]
          ]
        ]
      }
    },
    {
      "type": "Feature",
      "properties": {
        "clave_catastral": "MZ-03-02-P3",
        "nombre": "MZ-03-02-P3"
      },
      "geometry": {
        "type": "Polygon",
        "coordinates": [
          [
            [
              -78.661,
              -1.67286
            ],
            [
              -78.65686,
              -1.67286
            ],
            [
              -78.65686,
              -1.66872
            ],
            [
              -78.661,
              -1.66872
            ],
            [
              -78.661,
              -1.67286
            ]
          ]
        ]
      }
    },
    {
      "type": "Feature",
      "properties": {
        "clave_catastral": "MZ-03-02-P4",
        "nombre": "MZ-03-02-P4"
      },
      "geometry": {
        "type": "Polygon",
        "coordinates": [
          [
            [
              -78.65686,
              -1.67286
            ],
            [
              -78.65272,
              -1.67286
            ],
            [
              -78.65272,
              -1.66872
            ],
            [
              -78.65686,
              -1.66872
            ],
            [
              -78.65686,
              -1.67286
            ]
          ]
        ]
      }
    },
    {
      "type": "Feature",
      "properties": {
        "clave_catastral": "MZ-03-03-P1",
        "nombre": "MZ-03-03-P1"
      },
      "geometry": {
        "type": "Polygon",
        "coordinates": [
          [
            [
              -78.652,
              -1.677
            ],
            [
              -78.64786000000001,
              -1.677
            ],
            [
              -78.64786000000001,
              -1.67286
            ],
            [
              -78.652,
              -1.67286
            ],
            [
              -78.652,
              -1.677
            ]
          ]
        ]
      }
    },
    {
      "type": "Feature",
      "properties": {
        "clave_catastral": "MZ-03-03-P2",
        "nombre": "MZ-03-03-P2"
      },
      "geometry": {
        "type": "Polygon",
        "coordinates": [
          [
            [
              -78.64786000000001,
              -1.677
            ],
            [
              -78.64372,
              -1.677
            ],
            [
              -78.64372,
              -1.67286
            ],
            [
              -78.64786000000001,
              -1.67286
            ],
            [
              -78.64786000000001,
              -1.677
            ]
          ]
        ]
      }
    },
    {
      "type": "Feature",
      "properties": {
        "clave_catastral": "MZ-03-03-P3",
        "nombre": "MZ-03-03-P3"
      },
      "geometry": {
        "type": "Polygon",
        "coordinates": [
          [
            [
              -78.652,
              -1.67286
            ],
            [
              -78.64786000000001,
              -1.67286
            ],
            [
              -78.64786000000001,
              -1.66872
            ],
            [
              -78.652,
              -1.66872
            ],
            [
              -78.652,
              -1.67286
            ]
          ]
        ]
      }
    },
    {
      "type": "Feature",
      "properties": {
        "clave_catastral": "MZ-03-03-P4",
        "nombre": "MZ-03-03-P4"
      },
      "geometry": {
        "type": "Polygon",
        "coordinates": [
          [
            [
              -78.64786000000001,
              -1.67286
            ],
            [
              -78.64372,
              -1.67286
            ],
            [
              -78.64372,
              -1.66872
            ],
            [
              -78.64786000000001,
              -1.66872
            ],
            [
              -78.64786000000001,
              -1.67286
            ]
          ]
        ]
      }
    },
    {
      "type": "Feature",
      "properties": {
        "clave_catastral": "MZ-03-04-P1",
        "nombre": "MZ-03-04-P1"
      },
      "geometry": {
        "type": "Polygon",
        "coordinates": [
          [
            [
              -78.643,
              -1.677
            ],
            [
              -78.63886,
              -1.677
            ],
            [
              -78.63886,
              -1.67286
            ],
            [
              -78.643,
              -1.67286
            ],
            [
              -78.643,
              -1.677
            ]
          ]
        ]
      }
    },
    {
      "type": "Feature",
      "properties": {
        "clave_catastral": "MZ-03-04-P2",
        "nombre": "MZ-03-04-P2"
      },
      "geometry": {
        "type": "Polygon",
        "coordinates": [
          [
            [
              -78.63886,
              -1.677
            ],
            [
              -78.63472,
              -1.677
            ],
            [
              -78.63472,
              -1.67286
            ],
            [
              -78.63886,
              -1.67286
            ],
            [
              -78.63886,
              -1.677
            ]
          ]
        ]
      }
    },
    {
      "type": "Feature",
      "properties": {
        "clave_catastral": "MZ-03-04-P3",
        "nombre": "MZ-03-04-P3"
      },
      "geometry": {
        "type": "Polygon",
        "coordinates": [
          [
            [
              -78.643,
              -1.67286
            ],
            [
              -78.63886,
              -1.67286
            ],
            [
              -78.63886,
              -1.66872
            ],
            [
              -78.643,
              -1.66872
            ],
            [
              -78.643,
              -1.67286
            ]
          ]
        ]
      }
    },
    {
      "type": "Feature",
      "properties": {
        "clave_catastral": "MZ-03-04-P4",
        "nombre": "MZ-03-04-P4"
      },
      "geometry": {
        "type": "Polygon",
        "coordinates": [
          [
            [
              -78.63886,
              -1.67286
            ],
            [
              -78.63472,
              -1.67286
            ],
            [
              -78.63472,
              -1.66872
            ],
            [
              -78.63886,
              -1.66872
            ],
            [
              -78.63886,
              -1.67286
            ]
          ]
        ]
      }
    },
    {
      "type": "Feature",
      "properties": {
        "clave_catastral": "MZ-03-05-P1",
        "nombre": "MZ-03-05-P1"
      },
      "geometry": {
        "type": "Polygon",
        "coordinates": [
          [
            [
              -78.634,
              -1.677
            ],
            [
              -78.62986000000001,
              -1.677
            ],
            [
              -78.62986000000001,
              -1.67286
            ],
            [
              -78.634,
              -1.67286
            ],
            [
              -78.634,
              -1.677
            ]
          ]
        ]
      }
    },
    {
      "type": "Feature",
      "properties": {
        "clave_catastral": "MZ-03-05-P2",
        "nombre": "MZ-03-05-P2"
      },
      "geometry": {
        "type": "Polygon",
        "coordinates": [
          [
            [
              -78.62986000000001,
              -1.677
            ],
            [
              -78.62572,
              -1.677
            ],
            [
              -78.62572,
              -1.67286
            ],
            [
              -78.62986000000001,
              -1.67286
            ],
            [
              -78.62986000000001,
              -1.677
            ]
          ]
        ]
      }
    },
    {
      "type": "Feature",
      "properties": {
        "clave_catastral": "MZ-03-05-P3",
        "nombre": "MZ-03-05-P3"
      },
      "geometry": {
        "type": "Polygon",
        "coordinates": [
          [
            [
              -78.634,
              -1.67286
            ],
            [
              -78.62986000000001,
              -1.67286
            ],
            [
              -78.62986000000001,
              -1.66872
            ],
            [
              -78.634,
              -1.66872
            ],
            [
              -78.634,
              -1.67286
            ]
          ]
        ]
      }
    },
    {
      "type": "Feature",
      "properties": {
        "clave_catastral": "MZ-03-05-P4",
        "nombre": "MZ-03-05-P4"
      },
      "geometry": {
        "type": "Polygon",
        "coordinates": [
          [
            [
              -78.62986000000001,
              -1.67286
            ],
            [
              -78.62572,
              -1.67286
            ],
            [
              -78.62572,
              -1.66872
            ],
            [
              -78.62986000000001,
              -1.66872
            ],
            [
              -78.62986000000001,
              -1.67286
            ]
          ]
        ]
      }
    },
    {
      "type": "Feature",
      "properties": {
        "clave_catastral": "MZ-04-01-P1",
        "nombre": "MZ-04-01-P1"
      },
      "geometry": {
        "type": "Polygon",
        "coordinates": [
          [
            [
              -78.67,
              -1.668
            ],
            [
              -78.66586000000001,
              -1.668
            ],
            [
              -78.66586000000001,
              -1.66386
            ],
            [
              -78.67,
              -1.66386
            ],
            [
              -78.67,
              -1.668
            ]
          ]
        ]
      }
    },
    {
      "type": "Feature",
      "properties": {
        "clave_catastral": "MZ-04-01-P2",
        "nombre": "MZ-04-01-P2"
      },
      "geometry": {
        "type": "Polygon",
        "coordinates": [
          [
            [
              -78.66586000000001,
              -1.668
            ],
            [
              -78.66172,
              -1.668
            ],
            [
              -78.66172,
              -1.66386
            ],
            [
              -78.66586000000001,
              -1.66386
            ],
            [
              -78.66586000000001,
              -1.668
            ]
          ]
        ]
      }
    },
    {
      "type": "Feature",
      "properties": {
        "clave_catastral": "MZ-04-01-P3",
        "nombre": "MZ-04-01-P3"
      },
      "geometry": {
        "type": "Polygon",
        "coordinates": [
          [
            [
              -78.67,
              -1.66386
            ],
            [
              -78.66586000000001,
              -1.66386
            ],
            [
              -78.66586000000001,
              -1.6597199999999999
            ],
            [
              -78.67,
              -1.6597199999999999
            ],
            [
              -78.67,
              -1.66386
            ]
          ]
        ]
      }
    },
    {
      "type": "Feature",
      "properties": {
        "clave_catastral": "MZ-04-01-P4",
        "nombre": "MZ-04-01-P4"
      },
      "geometry": {
        "type": "Polygon",
        "coordinates": [
          [
            [
              -78.66586000000001,
              -1.66386
            ],
            [
              -78.66172,
              -1.66386
            ],
            [
              -78.66172,
              -1.6597199999999999
            ],
            [
              -78.66586000000001,
              -1.6597199999999999
            ],
            [
              -78.66586000000001,
              -1.66386
            ]
          ]
        ]
      }
    },
    {
      "type": "Feature",
      "properties": {
        "clave_catastral": "MZ-04-02-P1",
        "nombre": "MZ-04-02-P1"
      },
      "geometry": {
        "type": "Polygon",
        "coordinates": [
          [
            [
              -78.661,
              -1.668
            ],
            [
              -78.65686,
              -1.668
            ],
            [
              -78.65686,
              -1.66386
            ],
            [
              -78.661,
              -1.66386
            ],
            [
              -78.661,
              -1.668
            ]
          ]
        ]
      }
    },
    {
      "type": "Feature",
      "properties": {
        "clave_catastral": "MZ-04-02-P2",
        "nombre": "MZ-04-02-P2"
      },
      "geometry": {
        "type": "Polygon",
        "coordinates": [
          [
            [
              -78.65686,
              -1.668
            ],
            [
              -78.65272,
              -1.668
            ],
            [
              -78.65272,
              -1.66386
            ],
            [
              -78.65686,
              -1.66386
            ],
            [
              -78.65686,
              -1.668
            ]
          ]
        ]
      }
    },
    {
      "type": "Feature",
      "properties": {
        "clave_catastral": "MZ-04-02-P3",
        "nombre": "MZ-04-02-P3"
      },
      "geometry": {
        "type": "Polygon",
        "coordinates": [
          [
            [
              -78.661,
              -1.66386
            ],
            [
              -78.65686,
              -1.66386
            ],
            [
              -78.65686,
              -1.6597199999999999
            ],
            [
              -78.661,
              -1.6597199999999999
            ],
            [
              -78.661,
              -1.66386
            ]
          ]
        ]
      }
    },
    {
      "type": "Feature",
      "properties": {
        "clave_catastral": "MZ-04-02-P4",
        "nombre": "MZ-04-02-P4"
      },
      "geometry": {
        "type": "Polygon",
        "coordinates": [
          [
            [
              -78.65686,
              -1.66386
            ],
            [
              -78.65272,
              -1.66386
            ],
            [
              -78.65272,
              -1.6597199999999999
            ],
            [
              -78.65686,
              -1.6597199999999999
            ],
            [
              -78.65686,
              -1.66386
            ]
          ]
        ]
      }
    },
    {
      "type": "Feature",
      "properties": {
        "clave_catastral": "MZ-04-03-P1",
        "nombre": "MZ-04-03-P1"
      },
      "geometry": {
        "type": "Polygon",
        "coordinates": [
          [
            [
              -78.652,
              -1.668
            ],
            [
              -78.64786000000001,
              -1.668
            ],
            [
              -78.64786000000001,
              -1.66386
            ],
            [
              -78.652,
              -1.66386
            ],
            [
              -78.652,
              -1.668
            ]
          ]
        ]
      }
    },
    {
      "type": "Feature",
      "properties": {
        "clave_catastral": "MZ-04-03-P2",
        "nombre": "MZ-04-03-P2"
      },
      "geometry": {
        "type": "Polygon",
        "coordinates": [
          [
            [
              -78.64786000000001,
              -1.668
            ],
            [
              -78.64372,
              -1.668
            ],
            [
              -78.64372,
              -1.66386
            ],
            [
              -78.64786000000001,
              -1.66386
            ],
            [
              -78.64786000000001,
              -1.668
            ]
          ]
        ]
      }
    },
    {
      "type": "Feature",
      "properties": {
        "clave_catastral": "MZ-04-03-P3",
        "nombre": "MZ-04-03-P3"
      },
      "geometry": {
        "type": "Polygon",
        "coordinates": [
          [
            [
              -78.652,
              -1.66386
            ],
            [
              -78.64786000000001,
              -1.66386
            ],
            [
              -78.64786000000001,
              -1.6597199999999999
            ],
            [
              -78.652,
              -1.6597199999999999
            ],
            [
              -78.652,
              -1.66386
            ]
          ]
        ]
      }
    },
    {
      "type": "Feature",
      "properties": {
        "clave_catastral": "MZ-04-03-P4",
        "nombre": "MZ-04-03-P4"
      },
      "geometry": {
        "type": "Polygon",
        "coordinates": [
          [
            [
              -78.64786000000001,
              -1.66386
            ],
            [
              -78.64372,
              -1.66386
            ],
            [
              -78.64372,
              -1.6597199999999999
            ],
            [
              -78.64786000000001,
              -1.6597199999999999
            ],
            [
              -78.64786000000001,
              -1.66386
            ]
          ]
        ]
      }
    },
    {
      "type": "Feature",
      "properties": {
        "clave_catastral": "MZ-04-04-P1",
        "nombre": "MZ-04-04-P1"
      },
      "geometry": {
        "type": "Polygon",
        "coordinates": [
          [
            [
              -78.643,
              -1.668
            ],
            [
              -78.63886,
              -1.668
            ],
            [
              -78.63886,
              -1.66386
            ],
            [
              -78.643,
              -1.66386
            ],
            [
              -78.643,
              -1.668
            ]
          ]
        ]
      }
    },
    {
      "type": "Feature",
      "properties": {
        "clave_catastral": "MZ-04-04-P2",
        "nombre": "MZ-04-04-P2"
      },
      "geometry": {
        "type": "Polygon",
        "coordinates": [
          [
            [
              -78.63886,
              -1.668
            ],
            [
              -78.63472,
              -1.668
            ],
            [
              -78.63472,
              -1.66386
            ],
            [
              -78.63886,
              -1.66386
            ],
            [
              -78.63886,
              -1.668
            ]
          ]
        ]
      }
    },
    {
      "type": "Feature",
      "properties": {
        "clave_catastral": "MZ-04-04-P3",
        "nombre": "MZ-04-04-P3"
      },
      "geometry": {
        "type": "Polygon",
        "coordinates": [
          [
            [
              -78.643,
              -1.66386
            ],
            [
              -78.63886,
              -1.66386
            ],
            [
              -78.63886,
              -1.6597199999999999
            ],
            [
              -78.643,
              -1.6597199999999999
            ],
            [
              -78.643,
              -1.66386
            ]
          ]
        ]
      }
    },
    {
      "type": "Feature",
      "properties": {
        "clave_catastral": "MZ-04-04-P4",
        "nombre": "MZ-04-04-P4"
      },
      "geometry": {
        "type": "Polygon",
        "coordinates": [
          [
            [
              -78.63886,
              -1.66386
            ],
            [
              -78.63472,
              -1.66386
            ],
            [
              -78.63472,
              -1.6597199999999999
            ],
            [
              -78.63886,
              -1.6597199999999999
            ],
            [
              -78.63886,
              -1.66386
            ]
          ]
        ]
      }
    },
    {
      "type": "Feature",
      "properties": {
        "clave_catastral": "MZ-04-05-P1",
        "nombre": "MZ-04-05-P1"
      },
      "geometry": {
        "type": "Polygon",
        "coordinates": [
          [
            [
              -78.634,
              -1.668
            ],
            [
              -78.62986000000001,
              -1.668
            ],
            [
              -78.62986000000001,
              -1.66386
            ],
            [
              -78.634,
              -1.66386
            ],
            [
              -78.634,
              -1.668
            ]
          ]
        ]
      }
    },
    {
      "type": "Feature",
      "properties": {
        "clave_catastral": "MZ-04-05-P2",
        "nombre": "MZ-04-05-P2"
      },
      "geometry": {
        "type": "Polygon",
        "coordinates": [
          [
            [
              -78.62986000000001,
              -1.668
            ],
            [
              -78.62572,
              -1.668
            ],
            [
              -78.62572,
              -1.66386
            ],
            [
              -78.62986000000001,
              -1.66386
            ],
            [
              -78.62986000000001,
              -1.668
            ]
          ]
        ]
      }
    },
    {
      "type": "Feature",
      "properties": {
        "clave_catastral": "MZ-04-05-P3",
        "nombre": "MZ-04-05-P3"
      },
      "geometry": {
        "type": "Polygon",
        "coordinates": [
          [
            [
              -78.634,
              -1.66386
            ],
            [
              -78.62986000000001,
              -1.66386
            ],
            [
              -78.62986000000001,
              -1.6597199999999999
            ],
            [
              -78.634,
              -1.6597199999999999
            ],
            [
              -78.634,
              -1.66386
            ]
          ]
        ]
      }
    },
    {
      "type": "Feature",
      "properties": {
        "clave_catastral": "MZ-04-05-P4",
        "nombre": "MZ-04-05-P4"
      },
      "geometry": {
        "type": "Polygon",
        "coordinates": [
          [
            [
              -78.62986000000001,
              -1.66386
            ],
            [
              -78.62572,
              -1.66386
            ],
            [
              -78.62572,
              -1.6597199999999999
            ],
            [
              -78.62986000000001,
              -1.6597199999999999
            ],
            [
              -78.62986000000001,
              -1.66386
            ]
          ]
        ]
      }
    },
    {
      "type": "Feature",
      "properties": {
        "clave_catastral": "MZ-05-01-P1",
        "nombre": "MZ-05-01-P1"
      },
      "geometry": {
        "type": "Polygon",
        "coordinates": [
          [
            [
              -78.67,
              -1.659
            ],
            [
              -78.66586000000001,
              -1.659
            ],
            [
              -78.66586000000001,
              -1.65486
            ],
            [
              -78.67,
              -1.65486
            ],
            [
              -78.67,
              -1.659
            ]
          ]
        ]
      }
    },
    {
      "type": "Feature",
      "properties": {
        "clave_catastral": "MZ-05-01-P2",
        "nombre": "MZ-05-01-P2"
      },
      "geometry": {
        "type": "Polygon",
        "coordinates": [
          [
            [
              -78.66586000000001,
              -1.659
            ],
            [
              -78.66172,
              -1.659
            ],
            [
              -78.66172,
              -1.65486
            ],
            [
              -78.66586000000001,
              -1.65486
            ],
            [
              -78.66586000000001,
              -1.659
            ]
          ]
        ]
      }
    },
    {
      "type": "Feature",
      "properties": {
        "clave_catastral": "MZ-05-01-P3",
        "nombre": "MZ-05-01-P3"
      },
      "geometry": {
        "type": "Polygon",
        "coordinates": [
          [
            [
              -78.67,
              -1.65486
            ],
            [
              -78.66586000000001,
              -1.65486
            ],
            [
              -78.66586000000001,
              -1.65072
            ],
            [
              -78.67,
              -1.65072
            ],
            [
              -78.67,
              -1.65486
            ]
          ]
        ]
      }
    },
    {
      "type": "Feature",
      "properties": {
        "clave_catastral": "MZ-05-01-P4",
        "nombre": "MZ-05-01-P4"
      },
      "geometry": {
        "type": "Polygon",
        "coordinates": [
          [
            [
              -78.66586000000001,
              -1.65486
            ],
            [
              -78.66172,
              -1.65486
            ],
            [
              -78.66172,
              -1.65072
            ],
            [
              -78.66586000000001,
              -1.65072
            ],
            [
              -78.66586000000001,
              -1.65486
            ]
          ]
        ]
      }
    },
    {
      "type": "Feature",
      "properties": {
        "clave_catastral": "MZ-05-02-P1",
        "nombre": "MZ-05-02-P1"
      },
      "geometry": {
        "type": "Polygon",
        "coordinates": [
          [
            [
              -78.661,
              -1.659
            ],
            [
              -78.65686,
              -1.659
            ],
            [
              -78.65686,
              -1.65486
            ],
            [
              -78.661,
              -1.65486
            ],
            [
              -78.661,
              -1.659
            ]
          ]
        ]
      }
    },
    {
      "type": "Feature",
      "properties": {
        "clave_catastral": "MZ-05-02-P2",
        "nombre": "MZ-05-02-P2"
      },
      "geometry": {
        "type": "Polygon",
        "coordinates": [
          [
            [
              -78.65686,
              -1.659
            ],
            [
              -78.65272,
              -1.659
            ],
            [
              -78.65272,
              -1.65486
            ],
            [
              -78.65686,
              -1.65486
            ],
            [
              -78.65686,
              -1.659
            ]
          ]
        ]
      }
    },
    {
      "type": "Feature",
      "properties": {
        "clave_catastral": "MZ-05-02-P3",
        "nombre": "MZ-05-02-P3"
      },
      "geometry": {
        "type": "Polygon",
        "coordinates": [
          [
            [
              -78.661,
              -1.65486
            ],
            [
              -78.65686,
              -1.65486
            ],
            [
              -78.65686,
              -1.65072
            ],
            [
              -78.661,
              -1.65072
            ],
            [
              -78.661,
              -1.65486
            ]
          ]
        ]
      }
    },
    {
      "type": "Feature",
      "properties": {
        "clave_catastral": "MZ-05-02-P4",
        "nombre": "MZ-05-02-P4"
      },
      "geometry": {
        "type": "Polygon",
        "coordinates": [
          [
            [
              -78.65686,
              -1.65486
            ],
            [
              -78.65272,
              -1.65486
            ],
            [
              -78.65272,
              -1.65072
            ],
            [
              -78.65686,
              -1.65072
            ],
            [
              -78.65686,
              -1.65486
            ]
          ]
        ]
      }
    },
    {
      "type": "Feature",
      "properties": {
        "clave_catastral": "MZ-05-03-P1",
        "nombre": "MZ-05-03-P1"
      },
      "geometry": {
        "type": "Polygon",
        "coordinates": [
          [
            [
              -78.652,
              -1.659
            ],
            [
              -78.64786000000001,
              -1.659
            ],
            [
              -78.64786000000001,
              -1.65486
            ],
            [
              -78.652,
              -1.65486
            ],
            [
              -78.652,
              -1.659
            ]
          ]
        ]
      }
    },
    {
      "type": "Feature",
      "properties": {
        "clave_catastral": "MZ-05-03-P2",
        "nombre": "MZ-05-03-P2"
      },
      "geometry": {
        "type": "Polygon",
        "coordinates": [
          [
            [
              -78.64786000000001,
              -1.659
            ],
            [
              -78.64372,
              -1.659
            ],
            [
              -78.64372,
              -1.65486
            ],
            [
              -78.64786000000001,
              -1.65486
            ],
            [
              -78.64786000000001,
              -1.659
            ]
          ]
        ]
      }
    },
    {
      "type": "Feature",
      "properties": {
        "clave_catastral": "MZ-05-03-P3",
        "nombre": "MZ-05-03-P3"
      },
      "geometry": {
        "type": "Polygon",
        "coordinates": [
          [
            [
              -78.652,
              -1.65486
            ],
            [
              -78.64786000000001,
              -1.65486
            ],
            [
              -78.64786000000001,
              -1.65072
            ],
            [
              -78.652,
              -1.65072
            ],
            [
              -78.652,
              -1.65486
            ]
          ]
        ]
      }
    },
    {
      "type": "Feature",
      "properties": {
        "clave_catastral": "MZ-05-03-P4",
        "nombre": "MZ-05-03-P4"
      },
      "geometry": {
        "type": "Polygon",
        "coordinates": [
          [
            [
              -78.64786000000001,
              -1.65486
            ],
            [
              -78.64372,
              -1.65486
            ],
            [
              -78.64372,
              -1.65072
            ],
            [
              -78.64786000000001,
              -1.65072
            ],
            [
              -78.64786000000001,
              -1.65486
            ]
          ]
        ]
      }
    },
    {
      "type": "Feature",
      "properties": {
        "clave_catastral": "MZ-05-04-P1",
        "nombre": "MZ-05-04-P1"
      },
      "geometry": {
        "type": "Polygon",
        "coordinates": [
          [
            [
              -78.643,
              -1.659
            ],
            [
              -78.63886,
              -1.659
            ],
            [
              -78.63886,
              -1.65486
            ],
            [
              -78.643,
              -1.65486
            ],
            [
              -78.643,
              -1.659
            ]
          ]
        ]
      }
    },
    {
      "type": "Feature",
      "properties": {
        "clave_catastral": "MZ-05-04-P2",
        "nombre": "MZ-05-04-P2"
      },
      "geometry": {
        "type": "Polygon",
        "coordinates": [
          [
            [
              -78.63886,
              -1.659
            ],
            [
              -78.63472,
              -1.659
            ],
            [
              -78.63472,
              -1.65486
            ],
            [
              -78.63886,
              -1.65486
            ],
            [
              -78.63886,
              -1.659
            ]
          ]
        ]
      }
    },
    {
      "type": "Feature",
      "properties": {
        "clave_catastral": "MZ-05-04-P3",
        "nombre": "MZ-05-04-P3"
      },
      "geometry": {
        "type": "Polygon",
        "coordinates": [
          [
            [
              -78.643,
              -1.65486
            ],
            [
              -78.63886,
              -1.65486
            ],
            [
              -78.63886,
              -1.65072
            ],
            [
              -78.643,
              -1.65072
            ],
            [
              -78.643,
              -1.65486
            ]
          ]
        ]
      }
    },
    {
      "type": "Feature",
      "properties": {
        "clave_catastral": "MZ-05-04-P4",
        "nombre": "MZ-05-04-P4"
      },
      "geometry": {
        "type": "Polygon",
        "coordinates": [
          [
            [
              -78.63886,
              -1.65486
            ],
            [
              -78.63472,
              -1.65486
            ],
            [
              -78.63472,
              -1.65072
            ],
            [
              -78.63886,
              -1.65072
            ],
            [
              -78.63886,
              -1.65486
            ]
          ]
        ]
      }
    },
    {
      "type": "Feature",
      "properties": {
        "clave_catastral": "MZ-05-05-P1",
        "nombre": "MZ-05-05-P1"
      },
      "geometry": {
        "type": "Polygon",
        "coordinates": [
          [
            [
              -78.634,
              -1.659
            ],
            [
              -78.62986000000001,
              -1.659
            ],
            [
              -78.62986000000001,
              -1.65486
            ],
            [
              -78.634,
              -1.65486
            ],
            [
              -78.634,
              -1.659
            ]
          ]
        ]
      }
    },
    {
      "type": "Feature",
      "properties": {
        "clave_catastral": "MZ-05-05-P2",
        "nombre": "MZ-05-05-P2"
      },
      "geometry": {
        "type": "Polygon",
        "coordinates": [
          [
            [
              -78.62986000000001,
              -1.659
            ],
            [
              -78.62572,
              -1.659
            ],
            [
              -78.62572,
              -1.65486
            ],
            [
              -78.62986000000001,
              -1.65486
            ],
            [
              -78.62986000000001,
              -1.659
            ]
          ]
        ]
      }
    },
    {
      "type": "Feature",
      "properties": {
        "clave_catastral": "MZ-05-05-P3",
        "nombre": "MZ-05-05-P3"
      },
      "geometry": {
        "type": "Polygon",
        "coordinates": [
          [
            [
              -78.634,
              -1.65486
            ],
            [
              -78.62986000000001,
              -1.65486
            ],
            [
              -78.62986000000001,
              -1.65072
            ],
            [
              -78.634,
              -1.65072
            ],
            [
              -78.634,
              -1.65486
            ]
          ]
        ]
      }
    },
    {
      "type": "Feature",
      "properties": {
        "clave_catastral": "MZ-05-05-P4",
        "nombre": "MZ-05-05-P4"
      },
      "geometry": {
        "type": "Polygon",
        "coordinates": [
          [
            [
              -78.62986000000001,
              -1.65486
            ],
            [
              -78.62572,
              -1.65486
            ],
            [
              -78.62572,
              -1.65072
            ],
            [
              -78.62986000000001,
              -1.65072
            ],
            [
              -78.62986000000001,
              -1.65486
            ]
          ]
        ]
      }
    }
  ]
}